STARLINK-5444           
1 54768U 22175L   24198.42604088  .00000458  00000+0  46895-4 0  9995
2 54768  53.2154 208.6830 0001349  87.9985 272.1162 15.08838495 89359
STARLINK-5404           
1 54769U 22175M   24198.46229980  .00001225  00000+0  95069-4 0  9994
2 54769  53.2162 223.1717 0001480  87.4978 272.6184 15.08842793 86990
STARLINK-5448           
1 54770U 22175N   24198.47289996  .00000939  00000+0  77070-4 0  9993
2 54770  53.2167 208.2721 0001406  94.0607 266.0545 15.08837919 89363
STARLINK-5451           
1 54771U 22175P   24198.37257385  .00000687  00000+0  61270-4 0  9995
2 54771  53.2175 218.3414 0001534  97.8626 262.2540 15.08841208 89211
STARLINK-5452           
1 54772U 22175Q   24198.46921644  .00001165  00000+0  91274-4 0  9991
2 54772  53.2166 208.2486 0001392  95.2452 264.8699 15.08837567 89362
STARLINK-5453           
1 54773U 22175R   24199.24244827  .00001652  00000+0  12187-3 0  9996
2 54773  53.2157 219.5110 0001383  95.1677 264.9473 15.08830922 87110
STARLINK-5454           
1 54774U 22175S   24198.42499706  .00000137  00000+0  26685-4 0  9990
2 54774  53.2155 207.9824 0001394  92.4357 267.6795 15.08841684 89362
STARLINK-5465           
1 54775U 22175T   24198.37764170 -.00000220  00000+0  42965-5 0  9999
2 54775  53.2173 223.3563 0001631 100.3979 259.7197 15.08834605 89147
STARLINK-5470           
1 54776U 22175U   24199.21665299  .00000356  00000+0  40481-4 0  9995
2 54776  53.2156 219.3509 0001303  91.6522 268.4619 15.08833195 87110
STARLINK-5468           
1 54777U 22175V   24199.03635489  .00001136  00000+0  89467-4 0  9998
2 54777  53.2156 220.3586 0001388  98.4050 261.7100 15.08834307 87085
STARLINK-5450           
1 54778U 22175W   24198.32936858  .00000389  00000+0  42532-4 0  9995
2 54778  53.2161 208.7978 0001391  95.3698 264.7453 15.08834267 89345
STARLINK-5447           
1 54779U 22175X   24199.19417332 -.00000357  00000+0 -43290-5 0  9993
2 54779  53.2157 204.9542 0001340  87.6526 272.4619 15.08835367 87311
STARLINK-5449           
1 54780U 22175Y   24198.44710443 -.00000187  00000+0  63217-5 0  9992
2 54780  53.2159 208.1044 0001458  92.6820 267.4339 15.08840194 89365
STARLINK-5443           
1 54781U 22175Z   24199.18679959  .00000346  00000+0  39843-4 0  9994
2 54781  53.2170 204.9018 0001420  94.5067 265.6087 15.08840768 87317
STARLINK-5437           
1 54782U 22175AA  24199.05960999  .00039743  00000+0  79129-3 0  9991
2 54782  53.2147 120.4259 0008572  38.7215 321.4407 15.46515735 88493
STARLINK-5439           
1 54783U 22175AB  24199.18313546  .00000824  00000+0  69877-4 0  9994
2 54783  53.2154 204.8826 0001342  80.3296 279.7848 15.08831452 87318
STARLINK-5442           
1 54784U 22175AC  24199.23139069  .00000862  00000+0  72234-4 0  9990
2 54784  53.2165 219.4451 0001460 102.7475 257.3680 15.08837780 87110
