[{"OBJECT_NAME":"STARLINK-5444","OBJECT_ID":"2022-175L","EPOCH":"2024-07-16T10:13:29.932032","MEAN_MOTION":15.08838495,"ECCENTRICITY":0.0001349,"INCLINATION":53.2154,"RA_OF_ASC_NODE":208.683,"ARG_OF_PERICENTER":87.9985,"MEAN_ANOMALY":272.1162,"EPHEMERIS_TYPE":0,"CLASSIFICATION_TYPE":"U","NORAD_CAT_ID":54768,"ELEMENT_SET_NO":999,"REV_AT_EPOCH":8935,"BSTAR":4.6895e-5,"MEAN_MOTION_DOT":4.58e-6,"MEAN_MOTION_DDOT":0},{"OBJECT_NAME":"STARLINK-5404","OBJECT_ID":"2022-175M","EPOCH":"2024-07-16T11:05:42.702720","MEAN_MOTION":15.08842793,"ECCENTRICITY":0.000148,"INCLINATION":53.2162,"RA_OF_ASC_NODE":223.1717,"ARG_OF_PERICENTER":87.4978,"MEAN_ANOMALY":272.6184,"EPHEMERIS_TYPE":0,"CLASSIFICATION_TYPE":"U","NORAD_CAT_ID":54769,"ELEMENT_SET_NO":999,"REV_AT_EPOCH":8699,"BSTAR":9.5069e-5,"MEAN_MOTION_DOT":1.225e-5,"MEAN_MOTION_DDOT":0},{"OBJECT_NAME":"STARLINK-5448","OBJECT_ID":"2022-175N","EPOCH":"2024-07-16T11:20:58.556544","MEAN_MOTION":15.08837919,"ECCENTRICITY":0.0001406,"INCLINATION":53.2167,"RA_OF_ASC_NODE":208.2721,"ARG_OF_PERICENTER":94.0607,"MEAN_ANOMALY":266.0545,"EPHEMERIS_TYPE":0,"CLASSIFICATION_TYPE":"U","NORAD_CAT_ID":54770,"ELEMENT_SET_NO":999,"REV_AT_EPOCH":8936,"BSTAR":7.707e-5,"MEAN_MOTION_DOT":9.39e-6,"MEAN_MOTION_DDOT":0},{"OBJECT_NAME":"STARLINK-5451","OBJECT_ID":"2022-175P","EPOCH":"2024-07-16T08:56:30.380640","MEAN_MOTION":15.08841208,"ECCENTRICITY":0.0001534,"INCLINATION":53.2175,"RA_OF_ASC_NODE":218.3414,"ARG_OF_PERICENTER":97.8626,"MEAN_ANOMALY":262.254,"EPHEMERIS_TYPE":0,"CLASSIFICATION_TYPE":"U","NORAD_CAT_ID":54771,"ELEMENT_SET_NO":999,"REV_AT_EPOCH":8921,"BSTAR":6.127e-5,"MEAN_MOTION_DOT":6.87e-6,"MEAN_MOTION_DDOT":0},{"OBJECT_NAME":"STARLINK-5452","OBJECT_ID":"2022-175Q","EPOCH":"2024-07-16T11:15:40.300416","MEAN_MOTION":15.08837567,"ECCENTRICITY":0.0001392,"INCLINATION":53.2166,"RA_OF_ASC_NODE":208.2486,"ARG_OF_PERICENTER":95.2452,"MEAN_ANOMALY":264.8699,"EPHEMERIS_TYPE":0,"CLASSIFICATION_TYPE":"U","NORAD_CAT_ID":54772,"ELEMENT_SET_NO":999,"REV_AT_EPOCH":8936,"BSTAR":9.1274e-5,"MEAN_MOTION_DOT":1.165e-5,"MEAN_MOTION_DDOT":0},{"OBJECT_NAME":"STARLINK-5453","OBJECT_ID":"2022-175R","EPOCH":"2024-07-17T05:49:07.530528","MEAN_MOTION":15.08830922,"ECCENTRICITY":0.0001383,"INCLINATION":53.2157,"RA_OF_ASC_NODE":219.511,"ARG_OF_PERICENTER":95.1677,"MEAN_ANOMALY":264.9473,"EPHEMERIS_TYPE":0,"CLASSIFICATION_TYPE":"U","NORAD_CAT_ID":54773,"ELEMENT_SET_NO":999,"REV_AT_EPOCH":8711,"BSTAR":0.00012187,"MEAN_MOTION_DOT":1.652e-5,"MEAN_MOTION_DDOT":0},{"OBJECT_NAME":"STARLINK-5454","OBJECT_ID":"2022-175S","EPOCH":"2024-07-16T10:11:59.745984","MEAN_MOTION":15.08841684,"ECCENTRICITY":0.0001394,"INCLINATION":53.2155,"RA_OF_ASC_NODE":207.9824,"ARG_OF_PERICENTER":92.4357,"MEAN_ANOMALY":267.6795,"EPHEMERIS_TYPE":0,"CLASSIFICATION_TYPE":"U","NORAD_CAT_ID":54774,"ELEMENT_SET_NO":999,"REV_AT_EPOCH":8936,"BSTAR":2.6685e-5,"MEAN_MOTION_DOT":1.37e-6,"MEAN_MOTION_DDOT":0},{"OBJECT_NAME":"STARLINK-5465","OBJECT_ID":"2022-175T","EPOCH":"2024-07-16T09:03:48.242880","MEAN_MOTION":15.08834605,"ECCENTRICITY":0.0001631,"INCLINATION":53.2173,"RA_OF_ASC_NODE":223.3563,"ARG_OF_PERICENTER":100.3979,"MEAN_ANOMALY":259.7197,"EPHEMERIS_TYPE":0,"CLASSIFICATION_TYPE":"U","NORAD_CAT_ID":54775,"ELEMENT_SET_NO":999,"REV_AT_EPOCH":8914,"BSTAR":4.2965e-6,"MEAN_MOTION_DOT":-2.2e-6,"MEAN_MOTION_DDOT":0},{"OBJECT_NAME":"STARLINK-5470","OBJECT_ID":"2022-175U","EPOCH":"2024-07-17T05:11:58.818336","MEAN_MOTION":15.08833195,"ECCENTRICITY":0.0001303,"INCLINATION":53.2156,"RA_OF_ASC_NODE":219.3509,"ARG_OF_PERICENTER":91.6522,"MEAN_ANOMALY":268.4619,"EPHEMERIS_TYPE":0,"CLASSIFICATION_TYPE":"U","NORAD_CAT_ID":54776,"ELEMENT_SET_NO":999,"REV_AT_EPOCH":8711,"BSTAR":4.0481e-5,"MEAN_MOTION_DOT":3.56e-6,"MEAN_MOTION_DDOT":0},{"OBJECT_NAME":"STARLINK-5468","OBJECT_ID":"2022-175V","EPOCH":"2024-07-17T00:52:21.062496","MEAN_MOTION":15.08834307,"ECCENTRICITY":0.0001388,"INCLINATION":53.2156,"RA_OF_ASC_NODE":220.3586,"ARG_OF_PERICENTER":98.405,"MEAN_ANOMALY":261.71,"EPHEMERIS_TYPE":0,"CLASSIFICATION_TYPE":"U","NORAD_CAT_ID":54777,"ELEMENT_SET_NO":999,"REV_AT_EPOCH":8708,"BSTAR":8.9467e-5,"MEAN_MOTION_DOT":1.136e-5,"MEAN_MOTION_DDOT":0},{"OBJECT_NAME":"STARLINK-5450","OBJECT_ID":"2022-175W","EPOCH":"2024-07-16T07:54:17.445312","MEAN_MOTION":15.08834267,"ECCENTRICITY":0.0001391,"INCLINATION":53.2161,"RA_OF_ASC_NODE":208.7978,"ARG_OF_PERICENTER":95.3698,"MEAN_ANOMALY":264.7453,"EPHEMERIS_TYPE":0,"CLASSIFICATION_TYPE":"U","NORAD_CAT_ID":54778,"ELEMENT_SET_NO":999,"REV_AT_EPOCH":8934,"BSTAR":4.2532e-5,"MEAN_MOTION_DOT":3.89e-6,"MEAN_MOTION_DDOT":0},{"OBJECT_NAME":"STARLINK-5447","OBJECT_ID":"2022-175X","EPOCH":"2024-07-17T04:39:36.574848","MEAN_MOTION":15.08835367,"ECCENTRICITY":0.000134,"INCLINATION":53.2157,"RA_OF_ASC_NODE":204.9542,"ARG_OF_PERICENTER":87.6526,"MEAN_ANOMALY":272.4619,"EPHEMERIS_TYPE":0,"CLASSIFICATION_TYPE":"U","NORAD_CAT_ID":54779,"ELEMENT_SET_NO":999,"REV_AT_EPOCH":8731,"BSTAR":-4.329e-6,"MEAN_MOTION_DOT":-3.57e-6,"MEAN_MOTION_DDOT":0},{"OBJECT_NAME":"STARLINK-5449","OBJECT_ID":"2022-175Y","EPOCH":"2024-07-16T10:43:49.822752","MEAN_MOTION":15.08840194,"ECCENTRICITY":0.0001458,"INCLINATION":53.2159,"RA_OF_ASC_NODE":208.1044,"ARG_OF_PERICENTER":92.682,"MEAN_ANOMALY":267.4339,"EPHEMERIS_TYPE":0,"CLASSIFICATION_TYPE":"U","NORAD_CAT_ID":54780,"ELEMENT_SET_NO":999,"REV_AT_EPOCH":8936,"BSTAR":6.3217e-6,"MEAN_MOTION_DOT":-1.87e-6,"MEAN_MOTION_DDOT":0},{"OBJECT_NAME":"STARLINK-5443","OBJECT_ID":"2022-175Z","EPOCH":"2024-07-17T04:28:59.484576","MEAN_MOTION":15.08840768,"ECCENTRICITY":0.000142,"INCLINATION":53.217,"RA_OF_ASC_NODE":204.9018,"ARG_OF_PERICENTER":94.5067,"MEAN_ANOMALY":265.6087,"EPHEMERIS_TYPE":0,"CLASSIFICATION_TYPE":"U","NORAD_CAT_ID":54781,"ELEMENT_SET_NO":999,"REV_AT_EPOCH":8731,"BSTAR":3.9843e-5,"MEAN_MOTION_DOT":3.46e-6,"MEAN_MOTION_DDOT":0},{"OBJECT_NAME":"STARLINK-5437","OBJECT_ID":"2022-175AA","EPOCH":"2024-07-17T01:25:50.303136","MEAN_MOTION":15.46515735,"ECCENTRICITY":0.0008572,"INCLINATION":53.2147,"RA_OF_ASC_NODE":120.4259,"ARG_OF_PERICENTER":38.7215,"MEAN_ANOMALY":321.4407,"EPHEMERIS_TYPE":0,"CLASSIFICATION_TYPE":"U","NORAD_CAT_ID":54782,"ELEMENT_SET_NO":999,"REV_AT_EPOCH":8849,"BSTAR":0.00079129,"MEAN_MOTION_DOT":0.00039743,"MEAN_MOTION_DDOT":0},{"OBJECT_NAME":"STARLINK-5439","OBJECT_ID":"2022-175AB","EPOCH":"2024-07-17T04:23:42.903744","MEAN_MOTION":15.08831452,"ECCENTRICITY":0.0001342,"INCLINATION":53.2154,"RA_OF_ASC_NODE":204.8826,"ARG_OF_PERICENTER":80.3296,"MEAN_ANOMALY":279.7848,"EPHEMERIS_TYPE":0,"CLASSIFICATION_TYPE":"U","NORAD_CAT_ID":54783,"ELEMENT_SET_NO":999,"REV_AT_EPOCH":8731,"BSTAR":6.9877e-5,"MEAN_MOTION_DOT":8.24e-6,"MEAN_MOTION_DDOT":0},{"OBJECT_NAME":"STARLINK-5442","OBJECT_ID":"2022-175AC","EPOCH":"2024-07-17T05:33:12.155616","MEAN_MOTION":15.0883778,"ECCENTRICITY":0.000146,"INCLINATION":53.2165,"RA_OF_ASC_NODE":219.4451,"ARG_OF_PERICENTER":102.7475,"MEAN_ANOMALY":257.368,"EPHEMERIS_TYPE":0,"CLASSIFICATION_TYPE":"U","NORAD_CAT_ID":54784,"ELEMENT_SET_NO":999,"REV_AT_EPOCH":8711,"BSTAR":7.2234e-5,"MEAN_MOTION_DOT":8.62e-6,"MEAN_MOTION_DDOT":0}]
